[{"OBJECT_NAME":"BANDWAGON-2 OBJECT D","OBJECT_ID":"2024-247D","EPOCH":"2026-03-09T12:32:33.670752","MEAN_MOTION":15.29076102,"ECCENTRICITY":0.00034883,"INCLINATION":44.9954,"RA_OF_ASC_NODE":115.671,"ARG_OF_PERICENTER":351.1453,"MEAN_ANOMALY":8.9368,"EPHEMERIS_TYPE":0,"CLASSIFICATION_TYPE":"U","NORAD_CAT_ID":62380,"ELEMENT_SET_NO":999,"REV_AT_EPOCH":6773,"BSTAR":0.00040119131,"MEAN_MOTION_DOT":0.00011259,"MEAN_MOTION_DDOT":0},{"OBJECT_NAME":"STARLINK-32769","OBJECT_ID":"2025-008R","EPOCH":"2026-03-09T22:32:12.011424","MEAN_MOTION":15.27588348,"ECCENTRICITY":0.0001602,"INCLINATION":42.9992,"RA_OF_ASC_NODE":276.4122,"ARG_OF_PERICENTER":259.1156,"MEAN_ANOMALY":100.9515,"EPHEMERIS_TYPE":0,"CLASSIFICATION_TYPE":"U","NORAD_CAT_ID":62602,"ELEMENT_SET_NO":999,"REV_AT_EPOCH":6566,"BSTAR":0.001053351,"MEAN_MOTION_DOT":0.00028845,"MEAN_MOTION_DDOT":0}]
